[{"OBJECT_NAME":"STARLINK-1656","OBJECT_ID":"2020-062AE","EPOCH":"2026-03-09T22:08:49.885440","MEAN_MOTION":15.52163178,"ECCENTRICITY":0.00027689,"INCLINATION":53.0506,"RA_OF_ASC_NODE":358.4215,"ARG_OF_PERICENTER":148.6798,"MEAN_ANOMALY":211.4376,"EPHEMERIS_TYPE":0,"CLASSIFICATION_TYPE":"U","NORAD_CAT_ID":46353,"ELEMENT_SET_NO":999,"REV_AT_EPOCH":30458,"BSTAR":0.0018174616,"MEAN_MOTION_DOT":0.00113057,"MEAN_MOTION_DDOT":0},{"OBJECT_NAME":"STARLINK-1777","OBJECT_ID":"2020-088A","EPOCH":"2026-03-09T21:53:32.612064","MEAN_MOTION":15.51775072,"ECCENTRICITY":0.00015349,"INCLINATION":53.0539,"RA_OF_ASC_NODE":282.6272,"ARG_OF_PERICENTER":245.3461,"MEAN_ANOMALY":114.7388,"EPHEMERIS_TYPE":0,"CLASSIFICATION_TYPE":"U","NORAD_CAT_ID":47122,"ELEMENT_SET_NO":999,"REV_AT_EPOCH":29212,"BSTAR":0.0018721438,"MEAN_MOTION_DOT":0.00114877,"MEAN_MOTION_DDOT":0}]
